#aV2015 11 23  0  0  0.00000000     288 DD+AD WGS84 FIT  NGA
## 1872  86400.00000000   300.00000000 57349 0.0000000000000
+   30     1  2  3  5  6  7  8  9 11 12 13 14 15 16 17 18 19
+         20 21 22 23 24 25 26 27 28 29 30 31 32  0  0  0  0
+          0  0  0  0  0  0  0  0  0  0  0  0  0  0  0  0  0
+          0  0  0  0  0  0  0  0  0  0  0  0  0  0  0  0  0
+          0  0  0  0  0  0  0  0  0  0  0  0  0  0  0  0  0
++         2  2  2  2  2  2  2  2  2  2  2  2  2  2  2  2  2
++         2  2  2  2  2  2  2  2  2  2  2  2  2  0  0  0  0
++         0  0  0  0  0  0  0  0  0  0  0  0  0  0  0  0  0
++         0  0  0  0  0  0  0  0  0  0  0  0  0  0  0  0  0
++         0  0  0  0  0  0  0  0  0  0  0  0  0  0  0  0  0
%c cc cc ccc ccc cccc cccc cccc cccc ccccc ccccc ccccc ccccc
%c cc cc ccc ccc cccc cccc cccc cccc ccccc ccccc ccccc ccccc
%f  0.0000000  0.000000000  0.00000000000  0.000000000000000
%f  0.0000000  0.000000000  0.00000000000  0.000000000000000
%i    0    0    0    0      0      0      0      0         0
%i    0    0    0    0      0      0      0      0         0
/*      NGA, ST. LOUIS,MO.                                  
/*   EPHEMERIS COMPUTED FROM 2 DAYS OF DATA                 
/*   EPOCHA v2.4 SMOOTHER                                   
/*   G1762 IERS2010 SATAF SATAPC                            
*  2015 11 23  0  5  0.00000000
P  1 -18076.545864  -5829.720498  18574.847965      5.042149                    
V  1 -10380.957327 -21307.189037 -16521.098610      0.008269                    
P  2  13998.346608  22848.561534     77.239492    596.428653                    
V  2  -2410.300815   1916.393171  31043.835252      0.008791                    
P  3 -17960.658893   4058.103143  19148.735897     10.949069                    
V  3  11145.964253 -21649.071246  15023.514233     -0.039793                    
P  5   7860.410633  15453.598478 -20137.601891   -172.069057                    
V  5 -13810.463710  21501.724228  11339.860116      0.037619                    
P  6   4597.795069  23678.570760  11128.337471     99.814535                    
V  6  -9061.353502 -11094.320378  27334.946459      0.066423                    
P  7 -11351.512006  10217.155621 -21563.010050    479.592617                    
V  7 -13578.187988 -24161.880835  -4653.281653     -0.011093                    
P  8 -24442.273262  -5952.027893  -8460.064678    -13.503921                    
V  8  10818.023824  -2573.148123 -29277.152644     -0.014242                    
P  9 -21642.104141   8866.409079 -12610.590860     14.825542                    
V  9 -15996.325044  -2413.261189  25768.026607      0.064745                    
P 11 -22727.960099  -7415.791880  11089.799809   -617.691978                    
V 11  -8843.727852 -12873.807608 -25402.885488     -0.021764                    
P 12  16683.806802   -940.515234  20480.758814    347.587568                    
V 12 -13685.766659  22392.181646  12321.003870      0.030818                    
P 13  17827.858300  12565.659224 -15221.175347   -166.231264                    
V 13 -19178.145209   -502.848869 -23176.820010     -0.027540                    
P 14   7080.408628 -14303.738626  21458.661794     19.983438                    
V 14  26526.985198   2838.644440  -7088.524435     -0.024129                    
P 15  25654.901346   3741.435043  -6653.341843   -283.523552                    
V 15  -8103.778296   3610.236896 -29365.396385     -0.019527                    
P 16  -5782.440459 -15581.557864 -20699.702504    -64.024204                    
V 16  15430.835278 -21099.238920  11978.041639      0.035802                    
P 17  -6904.557457  14294.690142  21571.367296   -194.693529                    
V 17 -26589.278512  -1989.609630  -7504.443320     -0.009130                    
P 18  15763.597724 -20403.402033  -5218.883948    455.561072                    
V 18     72.851098   8438.973334 -30147.808257      0.037323                    
P 19 -21138.433880   7654.470595  14279.808491   -523.029990                    
V 19 -18045.334007  -3481.453296 -24043.700022     -0.003838                    
P 20  17495.780010  -1395.712296 -20112.095073    373.010338                    
V 20  -9949.335485  23299.441825 -10284.141991      0.028570                    
P 21   8591.519981 -14279.444631 -19901.772994   -495.141507                    
V 21  15065.291779  22518.312076  -9631.804892     -0.023791                    
P 22   7382.602976 -24468.568177   7115.644202    412.984644                    
V 22   7680.192019  -5841.538418 -29199.456173      0.033277                    
P 23 -26780.898708    357.437904   -800.716179   -145.891278                    
V 23  -1183.084705  -2873.452782  31154.918920     -0.020445                    
P 24  18876.038970   8355.251528  16772.126247     -8.322137                    
V 24   9283.369925  19290.497888 -19842.069023     -0.004868                    
P 25  18296.733290 -14211.727133  12729.217461    -71.607379                    
V 25  -6580.122632  15109.327145  26291.268895     -0.058545                    
P 26   1711.167735 -22478.168888 -14025.887512   -133.801803                    
V 26  10832.722526 -14322.610044  24285.106387     -0.160005                    
P 27 -16525.296424 -11840.160197 -17186.733193     38.177570                    
V 27  21707.750982  -1424.685295 -19792.073397      0.032287                    
P 28 -11648.864908  23306.314997   5567.280279    483.295025                    
V 28  -5050.804319   4106.282417 -31403.541264      0.026337                    
P 29  23669.747304  -5702.742487 -10556.252696    645.497264                    
V 29  13262.871422   2913.952050  28158.795353      0.015105                    
P 30  -3860.542043  19963.907151 -17044.303968     60.820650                    
V 30 -11081.677387 -18750.639735 -19529.520204      0.055207                    
P 31  -4717.518517 -23924.973783  10210.313022    294.197844                    
V 31   8103.789324  10291.616051  28548.649787     -0.015590                    
P 32 -12616.450833  -8981.728006  21508.380584     25.372926                    
V 32  15588.475349 -22688.472503    203.743204      0.119134                    
EOF
